[{"OBJECT_NAME":"STARLINK-2558","OBJECT_ID":"2021-036G","EPOCH":"2026-03-09T05:46:50.420640","MEAN_MOTION":15.30182377,"ECCENTRICITY":0.00011617,"INCLINATION":53.1601,"RA_OF_ASC_NODE":77.4576,"ARG_OF_PERICENTER":117.5485,"MEAN_ANOMALY":242.5634,"EPHEMERIS_TYPE":0,"CLASSIFICATION_TYPE":"U","NORAD_CAT_ID":48282,"ELEMENT_SET_NO":999,"REV_AT_EPOCH":26834,"BSTAR":-4.0136683e-5,"MEAN_MOTION_DOT":-1.547e-5,"MEAN_MOTION_DDOT":0},{"OBJECT_NAME":"HYPERFIELD-1A","OBJECT_ID":"2024-149CY","EPOCH":"2026-03-09T18:21:25.814304","MEAN_MOTION":15.29681349,"ECCENTRICITY":0.00038648,"INCLINATION":97.3842,"RA_OF_ASC_NODE":149.5066,"ARG_OF_PERICENTER":313.7844,"MEAN_ANOMALY":46.3076,"EPHEMERIS_TYPE":0,"CLASSIFICATION_TYPE":"U","NORAD_CAT_ID":60562,"ELEMENT_SET_NO":999,"REV_AT_EPOCH":8683,"BSTAR":0.00030052114,"MEAN_MOTION_DOT":8.569e-5,"MEAN_MOTION_DDOT":0}]
